[{"OBJECT_NAME":"ONEWEB-0677","OBJECT_ID":"2023-068D","EPOCH":"2026-03-09T15:24:54.331200","MEAN_MOTION":13.2077249,"ECCENTRICITY":0.0001553,"INCLINATION":87.917,"RA_OF_ASC_NODE":294.3117,"ARG_OF_PERICENTER":79.913,"MEAN_ANOMALY":280.2178,"EPHEMERIS_TYPE":0,"CLASSIFICATION_TYPE":"U","NORAD_CAT_ID":56713,"ELEMENT_SET_NO":999,"REV_AT_EPOCH":13666,"BSTAR":-7.3348e-5,"MEAN_MOTION_DOT":-1.7e-7,"MEAN_MOTION_DDOT":0},{"OBJECT_NAME":"CZ-6A DEB","OBJECT_ID":"2024-140AS","EPOCH":"2026-03-09T23:24:08.756640","MEAN_MOTION":13.7530622,"ECCENTRICITY":0.0340243,"INCLINATION":89.5892,"RA_OF_ASC_NODE":327.0425,"ARG_OF_PERICENTER":233.2027,"MEAN_ANOMALY":123.7474,"EPHEMERIS_TYPE":0,"CLASSIFICATION_TYPE":"U","NORAD_CAT_ID":60641,"ELEMENT_SET_NO":999,"REV_AT_EPOCH":7948,"BSTAR":0.00065737581,"MEAN_MOTION_DOT":9.71e-6,"MEAN_MOTION_DDOT":0}]
